<?xml version="1.0" encoding="UTF-8"?>
<ndm xmlns:xsi="http://www.w3.org/2001/XMLSchema-instance" xsi:noNamespaceSchemaLocation="https://sanaregistry.org/r/ndmxml_unqualified/ndmxml-2.0.0-master-2.0.xsd">
<omm id="CCSDS_OMM_VERS" version="2.0">
<header><CREATION_DATE/><ORIGINATOR/></header><body><segment><metadata><OBJECT_NAME>KUIPER-00167</OBJECT_NAME><OBJECT_ID>2025-217U</OBJECT_ID><CENTER_NAME>EARTH</CENTER_NAME><REF_FRAME>TEME</REF_FRAME><TIME_SYSTEM>UTC</TIME_SYSTEM><MEAN_ELEMENT_THEORY>SGP4</MEAN_ELEMENT_THEORY></metadata><data><meanElements><EPOCH>2025-12-01T12:00:05.998752</EPOCH><MEAN_MOTION>15.08813765</MEAN_MOTION><ECCENTRICITY>.0010952</ECCENTRICITY><INCLINATION>51.8862</INCLINATION><RA_OF_ASC_NODE>121.9808</RA_OF_ASC_NODE><ARG_OF_PERICENTER>305.5438</ARG_OF_PERICENTER><MEAN_ANOMALY>288.8121</MEAN_ANOMALY></meanElements><tleParameters><EPHEMERIS_TYPE>0</EPHEMERIS_TYPE><CLASSIFICATION_TYPE>U</CLASSIFICATION_TYPE><NORAD_CAT_ID>65780</NORAD_CAT_ID><ELEMENT_SET_NO>999</ELEMENT_SET_NO><REV_AT_EPOCH>441</REV_AT_EPOCH><BSTAR>-.59701E-2</BSTAR><MEAN_MOTION_DOT>-.94222E-3</MEAN_MOTION_DOT><MEAN_MOTION_DDOT>0</MEAN_MOTION_DDOT></tleParameters></data></segment></body></omm>
<omm id="CCSDS_OMM_VERS" version="2.0">
<header><CREATION_DATE/><ORIGINATOR/></header><body><segment><metadata><OBJECT_NAME>KUIPER-00168</OBJECT_NAME><OBJECT_ID>2025-217V</OBJECT_ID><CENTER_NAME>EARTH</CENTER_NAME><REF_FRAME>TEME</REF_FRAME><TIME_SYSTEM>UTC</TIME_SYSTEM><MEAN_ELEMENT_THEORY>SGP4</MEAN_ELEMENT_THEORY></metadata><data><meanElements><EPOCH>2025-12-01T09:02:21.821280</EPOCH><MEAN_MOTION>15.38746356</MEAN_MOTION><ECCENTRICITY>.0001476</ECCENTRICITY><INCLINATION>51.8707</INCLINATION><RA_OF_ASC_NODE>118.8463</RA_OF_ASC_NODE><ARG_OF_PERICENTER>163.0792</ARG_OF_PERICENTER><MEAN_ANOMALY>197.0245</MEAN_ANOMALY></meanElements><tleParameters><EPHEMERIS_TYPE>0</EPHEMERIS_TYPE><CLASSIFICATION_TYPE>U</CLASSIFICATION_TYPE><NORAD_CAT_ID>65781</NORAD_CAT_ID><ELEMENT_SET_NO>999</ELEMENT_SET_NO><REV_AT_EPOCH>1030</REV_AT_EPOCH><BSTAR>.14271E-2</BSTAR><MEAN_MOTION_DOT>.55535E-3</MEAN_MOTION_DOT><MEAN_MOTION_DDOT>0</MEAN_MOTION_DDOT></tleParameters></data></segment></body></omm>
<omm id="CCSDS_OMM_VERS" version="2.0">
<header><CREATION_DATE/><ORIGINATOR/></header><body><segment><metadata><OBJECT_NAME>KUIPER-00169</OBJECT_NAME><OBJECT_ID>2025-217W</OBJECT_ID><CENTER_NAME>EARTH</CENTER_NAME><REF_FRAME>TEME</REF_FRAME><TIME_SYSTEM>UTC</TIME_SYSTEM><MEAN_ELEMENT_THEORY>SGP4</MEAN_ELEMENT_THEORY></metadata><data><meanElements><EPOCH>2025-11-30T16:36:19.005696</EPOCH><MEAN_MOTION>15.38446613</MEAN_MOTION><ECCENTRICITY>.0002413</ECCENTRICITY><INCLINATION>51.8708</INCLINATION><RA_OF_ASC_NODE>122.4975</RA_OF_ASC_NODE><ARG_OF_PERICENTER>290.7380</ARG_OF_PERICENTER><MEAN_ANOMALY>69.3348</MEAN_ANOMALY></meanElements><tleParameters><EPHEMERIS_TYPE>0</EPHEMERIS_TYPE><CLASSIFICATION_TYPE>U</CLASSIFICATION_TYPE><NORAD_CAT_ID>65782</NORAD_CAT_ID><ELEMENT_SET_NO>999</ELEMENT_SET_NO><REV_AT_EPOCH>1019</REV_AT_EPOCH><BSTAR>.16221E-2</BSTAR><MEAN_MOTION_DOT>.62619E-3</MEAN_MOTION_DOT><MEAN_MOTION_DDOT>0</MEAN_MOTION_DDOT></tleParameters></data></segment></body></omm>
<omm id="CCSDS_OMM_VERS" version="2.0">
<header><CREATION_DATE/><ORIGINATOR/></header><body><segment><metadata><OBJECT_NAME>KUIPER-00170</OBJECT_NAME><OBJECT_ID>2025-217X</OBJECT_ID><CENTER_NAME>EARTH</CENTER_NAME><REF_FRAME>TEME</REF_FRAME><TIME_SYSTEM>UTC</TIME_SYSTEM><MEAN_ELEMENT_THEORY>SGP4</MEAN_ELEMENT_THEORY></metadata><data><meanElements><EPOCH>2025-12-01T12:00:05.998752</EPOCH><MEAN_MOTION>15.26606712</MEAN_MOTION><ECCENTRICITY>.0007136</ECCENTRICITY><INCLINATION>51.8706</INCLINATION><RA_OF_ASC_NODE>119.4858</RA_OF_ASC_NODE><ARG_OF_PERICENTER>316.4441</ARG_OF_PERICENTER><MEAN_ANOMALY>121.3121</MEAN_ANOMALY></meanElements><tleParameters><EPHEMERIS_TYPE>0</EPHEMERIS_TYPE><CLASSIFICATION_TYPE>U</CLASSIFICATION_TYPE><NORAD_CAT_ID>65783</NORAD_CAT_ID><ELEMENT_SET_NO>999</ELEMENT_SET_NO><REV_AT_EPOCH>578</REV_AT_EPOCH><BSTAR>.88418E-4</BSTAR><MEAN_MOTION_DOT>.2E-4</MEAN_MOTION_DOT><MEAN_MOTION_DDOT>0</MEAN_MOTION_DDOT></tleParameters></data></segment></body></omm>
<omm id="CCSDS_OMM_VERS" version="2.0">
<header><CREATION_DATE/><ORIGINATOR/></header><body><segment><metadata><OBJECT_NAME>KUIPER-00171</OBJECT_NAME><OBJECT_ID>2025-217Y</OBJECT_ID><CENTER_NAME>EARTH</CENTER_NAME><REF_FRAME>TEME</REF_FRAME><TIME_SYSTEM>UTC</TIME_SYSTEM><MEAN_ELEMENT_THEORY>SGP4</MEAN_ELEMENT_THEORY></metadata><data><meanElements><EPOCH>2025-12-01T09:24:31.375584</EPOCH><MEAN_MOTION>15.67393552</MEAN_MOTION><ECCENTRICITY>.0007945</ECCENTRICITY><INCLINATION>51.8573</INCLINATION><RA_OF_ASC_NODE>113.7245</RA_OF_ASC_NODE><ARG_OF_PERICENTER>321.8213</ARG_OF_PERICENTER><MEAN_ANOMALY>38.2222</MEAN_ANOMALY></meanElements><tleParameters><EPHEMERIS_TYPE>0</EPHEMERIS_TYPE><CLASSIFICATION_TYPE>U</CLASSIFICATION_TYPE><NORAD_CAT_ID>65784</NORAD_CAT_ID><ELEMENT_SET_NO>999</ELEMENT_SET_NO><REV_AT_EPOCH>1037</REV_AT_EPOCH><BSTAR>.31999E-2</BSTAR><MEAN_MOTION_DOT>.369001E-2</MEAN_MOTION_DOT><MEAN_MOTION_DDOT>0</MEAN_MOTION_DDOT></tleParameters></data></segment></body></omm>
<omm id="CCSDS_OMM_VERS" version="2.0">
<header><CREATION_DATE/><ORIGINATOR/></header><body><segment><metadata><OBJECT_NAME>KUIPER-00172</OBJECT_NAME><OBJECT_ID>2025-217Z</OBJECT_ID><CENTER_NAME>EARTH</CENTER_NAME><REF_FRAME>TEME</REF_FRAME><TIME_SYSTEM>UTC</TIME_SYSTEM><MEAN_ELEMENT_THEORY>SGP4</MEAN_ELEMENT_THEORY></metadata><data><meanElements><EPOCH>2025-11-30T19:19:07.775904</EPOCH><MEAN_MOTION>15.38586370</MEAN_MOTION><ECCENTRICITY>.00034818</ECCENTRICITY><INCLINATION>51.8712</INCLINATION><RA_OF_ASC_NODE>121.7605</RA_OF_ASC_NODE><ARG_OF_PERICENTER>291.3579</ARG_OF_PERICENTER><MEAN_ANOMALY>68.7037</MEAN_ANOMALY></meanElements><tleParameters><EPHEMERIS_TYPE>0</EPHEMERIS_TYPE><CLASSIFICATION_TYPE>U</CLASSIFICATION_TYPE><NORAD_CAT_ID>65785</NORAD_CAT_ID><ELEMENT_SET_NO>999</ELEMENT_SET_NO><REV_AT_EPOCH>1021</REV_AT_EPOCH><BSTAR>.14204803E-2</BSTAR><MEAN_MOTION_DOT>.54988E-3</MEAN_MOTION_DOT><MEAN_MOTION_DDOT>0</MEAN_MOTION_DDOT></tleParameters></data></segment></body></omm>
<omm id="CCSDS_OMM_VERS" version="2.0">
<header><CREATION_DATE/><ORIGINATOR/></header><body><segment><metadata><OBJECT_NAME>KUIPER-00173</OBJECT_NAME><OBJECT_ID>2025-217AA</OBJECT_ID><CENTER_NAME>EARTH</CENTER_NAME><REF_FRAME>TEME</REF_FRAME><TIME_SYSTEM>UTC</TIME_SYSTEM><MEAN_ELEMENT_THEORY>SGP4</MEAN_ELEMENT_THEORY></metadata><data><meanElements><EPOCH>2025-12-01T12:00:05.998752</EPOCH><MEAN_MOTION>15.35849484</MEAN_MOTION><ECCENTRICITY>.0002978</ECCENTRICITY><INCLINATION>51.8704</INCLINATION><RA_OF_ASC_NODE>118.5162</RA_OF_ASC_NODE><ARG_OF_PERICENTER>264.2272</ARG_OF_PERICENTER><MEAN_ANOMALY>281.0470</MEAN_ANOMALY></meanElements><tleParameters><EPHEMERIS_TYPE>0</EPHEMERIS_TYPE><CLASSIFICATION_TYPE>U</CLASSIFICATION_TYPE><NORAD_CAT_ID>65786</NORAD_CAT_ID><ELEMENT_SET_NO>999</ELEMENT_SET_NO><REV_AT_EPOCH>535</REV_AT_EPOCH><BSTAR>-.20605E-2</BSTAR><MEAN_MOTION_DOT>-.72687E-3</MEAN_MOTION_DOT><MEAN_MOTION_DDOT>0</MEAN_MOTION_DDOT></tleParameters></data></segment></body></omm>
<omm id="CCSDS_OMM_VERS" version="2.0">
<header><CREATION_DATE/><ORIGINATOR/></header><body><segment><metadata><OBJECT_NAME>KUIPER-00174</OBJECT_NAME><OBJECT_ID>2025-217AB</OBJECT_ID><CENTER_NAME>EARTH</CENTER_NAME><REF_FRAME>TEME</REF_FRAME><TIME_SYSTEM>UTC</TIME_SYSTEM><MEAN_ELEMENT_THEORY>SGP4</MEAN_ELEMENT_THEORY></metadata><data><meanElements><EPOCH>2025-11-30T03:35:51.299520</EPOCH><MEAN_MOTION>15.38091958</MEAN_MOTION><ECCENTRICITY>.00026247</ECCENTRICITY><INCLINATION>51.8700</INCLINATION><RA_OF_ASC_NODE>124.8704</RA_OF_ASC_NODE><ARG_OF_PERICENTER>224.2105</ARG_OF_PERICENTER><MEAN_ANOMALY>135.8673</MEAN_ANOMALY></meanElements><tleParameters><EPHEMERIS_TYPE>0</EPHEMERIS_TYPE><CLASSIFICATION_TYPE>U</CLASSIFICATION_TYPE><NORAD_CAT_ID>65787</NORAD_CAT_ID><ELEMENT_SET_NO>999</ELEMENT_SET_NO><REV_AT_EPOCH>1011</REV_AT_EPOCH><BSTAR>.20618817E-2</BSTAR><MEAN_MOTION_DOT>.78958E-3</MEAN_MOTION_DOT><MEAN_MOTION_DDOT>0</MEAN_MOTION_DDOT></tleParameters></data></segment></body></omm>

</ndm>
