KUIPER-00167            
1 65780U 25217U   25335.50006943 -.00094222  00000+0 -59701-2 0  9992
2 65780  51.8862 121.9808 0010952 305.5438 288.8121 15.08813765  4415
KUIPER-00168            
1 65781U 25217V   25335.37664145  .00055535  00000+0  14271-2 0  9997
2 65781  51.8707 118.8463 0001476 163.0792 197.0245 15.38746356 10304
KUIPER-00169            
1 65782U 25217W   25334.69188664  .00062619  00000+0  16221-2 0  9997
2 65782  51.8708 122.4975 0002413 290.7380  69.3348 15.38446613 10193
KUIPER-00170            
1 65783U 25217X   25335.50006943  .00002000  00000+0  88418-4 0  9995
2 65783  51.8706 119.4858 0007136 316.4441 121.3121 15.26606712  5781
KUIPER-00171            
1 65784U 25217Y   25335.39202981  .00369001  00000+0  31999-2 0  9990
2 65784  51.8573 113.7245 0007945 321.8213  38.2222 15.67393552 10375
KUIPER-00172            
1 65785U 25217Z   25334.80495111  .00054988  00000+0  14205-2 0  9991
2 65785  51.8712 121.7605 0003481 291.3579  68.7037 15.38586370 10212
KUIPER-00173            
1 65786U 25217AA  25335.50006943 -.00072687  00000+0 -20605-2 0  9990
2 65786  51.8704 118.5162 0002978 264.2272 281.0470 15.35849484  5350
KUIPER-00174            
1 65787U 25217AB  25334.14989930  .00078958  00000+0  20619-2 0  9996
2 65787  51.8700 124.8704 0002624 224.2105 135.8673 15.38091958 10117
